QIANFAN-1               
1 60379U 24140A   25336.84203652  .00000080  00000+0  10552-3 0  9998
2 60379  88.9748 300.3051 0015605 241.8614 118.0960 13.50975799 66019
QIANFAN-2               
1 60380U 24140B   25336.87105823  .00000102  00000+0  13869-3 0  9993
2 60380  88.9734 300.1428 0011395 209.1617 150.8899 13.50979454 66077
QIANFAN-3               
1 60381U 24140C   25336.80516221  .00000092  00000+0  12340-3 0  9996
2 60381  88.9727 300.2830 0012231 224.1324 135.8852 13.50979958 65979
QIANFAN-4               
1 60382U 24140D   25336.85440705  .00000083  00000+0  11004-3 0  9991
2 60382  88.9751 300.1731 0011564 212.2768 147.7677 13.50980098 66104
QIANFAN-5               
1 60383U 24140E   25336.82983382  .00000097  00000+0  13114-3 0  9991
2 60383  88.9726 300.3059 0013316 237.1590 122.8280 13.50977611 65962
QIANFAN-6               
1 60384U 24140F   25336.85042979  .00000094  00000+0  12712-3 0  9993
2 60384  88.9753 300.0473 0011546 218.9967 141.0353 13.50978102 66161
QIANFAN-7               
1 60385U 24140G   25336.86192686  .00000785  00000+0  31258-3 0  9999
2 60385  88.9769 294.8813 0017375  74.2753 286.0356 14.27627234 68986
QIANFAN-8               
1 60386U 24140H   25336.85867106  .00000099  00000+0  13409-3 0  9991
2 60386  88.9754 300.2838 0014944 222.6862 137.3129 13.50976060 66016
